CCSDS_OMM_VERS = 2.0
CREATION_DATE  = 
ORIGINATOR     = 

OBJECT_NAME    = ERS-1
OBJECT_ID      = 1991-050A
CENTER_NAME    = EARTH
REF_FRAME      = TEME
TIME_SYSTEM    = UTC
MEAN_ELEMENT_THEORY = SGP/SGP4

EPOCH          = 2026-03-17T01:34:18.126912
MEAN_MOTION    = 14.39455000
ECCENTRICITY   = .00320327
INCLINATION    = 98.7875
RA_OF_ASC_NODE = 94.4854
ARG_OF_PERICENTER = 178.4627
MEAN_ANOMALY   = 181.6664

EPHEMERIS_TYPE = 0
CLASSIFICATION_TYPE = U
NORAD_CAT_ID   = 21574
ELEMENT_SET_NO = 999
REV_AT_EPOCH   = 81679
BSTAR          = .10043938E-3
MEAN_MOTION_DOT = .268E-5
MEAN_MOTION_DDOT = 0

CCSDS_OMM_VERS = 2.0
CREATION_DATE  = 
ORIGINATOR     = 

OBJECT_NAME    = ARIANE 40 R/B
OBJECT_ID      = 1991-050F
CENTER_NAME    = EARTH
REF_FRAME      = TEME
TIME_SYSTEM    = UTC
MEAN_ELEMENT_THEORY = SGP/SGP4

EPOCH          = 2026-03-17T04:02:15.670752
MEAN_MOTION    = 14.42899144
ECCENTRICITY   = .00041264
INCLINATION    = 98.1996
RA_OF_ASC_NODE = 128.1236
ARG_OF_PERICENTER = 64.8706
MEAN_ANOMALY   = 295.2912

EPHEMERIS_TYPE = 0
CLASSIFICATION_TYPE = U
NORAD_CAT_ID   = 21610
ELEMENT_SET_NO = 999
REV_AT_EPOCH   = 82007
BSTAR          = .9481941E-4
MEAN_MOTION_DOT = .275E-5
MEAN_MOTION_DDOT = 0

CCSDS_OMM_VERS = 2.0
CREATION_DATE  = 
ORIGINATOR     = 

OBJECT_NAME    = INTERCOSMOS 25
OBJECT_ID      = 1991-086A
CENTER_NAME    = EARTH
REF_FRAME      = TEME
TIME_SYSTEM    = UTC
MEAN_ELEMENT_THEORY = SGP/SGP4

EPOCH          = 2026-03-17T02:05:44.714112
MEAN_MOTION    = 12.12026893
ECCENTRICITY   = .14868334
INCLINATION    = 82.6042
RA_OF_ASC_NODE = 305.5372
ARG_OF_PERICENTER = 100.9968
MEAN_ANOMALY   = 276.1416

EPHEMERIS_TYPE = 0
CLASSIFICATION_TYPE = U
NORAD_CAT_ID   = 21819
ELEMENT_SET_NO = 999
REV_AT_EPOCH   = 49758
BSTAR          = .32887618E-3
MEAN_MOTION_DOT = .1715E-4
MEAN_MOTION_DDOT = 0

CCSDS_OMM_VERS = 2.0
CREATION_DATE  = 
ORIGINATOR     = 

OBJECT_NAME    = SL-8 R/B
OBJECT_ID      = 1992-008B
CENTER_NAME    = EARTH
REF_FRAME      = TEME
TIME_SYSTEM    = UTC
MEAN_ELEMENT_THEORY = SGP/SGP4

EPOCH          = 2026-03-17T07:22:02.944128
MEAN_MOTION    = 13.75969723
ECCENTRICITY   = .00358089
INCLINATION    = 82.9222
RA_OF_ASC_NODE = 262.1101
ARG_OF_PERICENTER = 112.7001
MEAN_ANOMALY   = 60.3171

EPHEMERIS_TYPE = 0
CLASSIFICATION_TYPE = U
NORAD_CAT_ID   = 21876
ELEMENT_SET_NO = 999
REV_AT_EPOCH   = 71046
BSTAR          = -.5574614E-5
MEAN_MOTION_DOT = .1E-6
MEAN_MOTION_DDOT = 0

CCSDS_OMM_VERS = 2.0
CREATION_DATE  = 
ORIGINATOR     = 

OBJECT_NAME    = SL-8 R/B
OBJECT_ID      = 1992-020B
CENTER_NAME    = EARTH
REF_FRAME      = TEME
TIME_SYSTEM    = UTC
MEAN_ELEMENT_THEORY = SGP/SGP4

EPOCH          = 2026-03-17T04:24:07.623648
MEAN_MOTION    = 13.75550095
ECCENTRICITY   = .00275354
INCLINATION    = 82.9324
RA_OF_ASC_NODE = 148.1983
ARG_OF_PERICENTER = 276.8905
MEAN_ANOMALY   = 139.5800

EPHEMERIS_TYPE = 0
CLASSIFICATION_TYPE = U
NORAD_CAT_ID   = 21938
ELEMENT_SET_NO = 999
REV_AT_EPOCH   = 70216
BSTAR          = .42409923E-4
MEAN_MOTION_DOT = .56E-6
MEAN_MOTION_DDOT = 0

CCSDS_OMM_VERS = 2.0
CREATION_DATE  = 
ORIGINATOR     = 

OBJECT_NAME    = USA 81
OBJECT_ID      = 1992-023A
CENTER_NAME    = EARTH
REF_FRAME      = TEME
TIME_SYSTEM    = UTC
MEAN_ELEMENT_THEORY = SGP/SGP4

EPOCH          = 2026-03-17T04:52:56.585280
MEAN_MOTION    = 14.32370461
ECCENTRICITY   = .00022626
INCLINATION    = 85.0070
RA_OF_ASC_NODE = 127.1060
ARG_OF_PERICENTER = 71.9086
MEAN_ANOMALY   = 288.2353

EPHEMERIS_TYPE = 0
CLASSIFICATION_TYPE = U
NORAD_CAT_ID   = 21949
ELEMENT_SET_NO = 999
REV_AT_EPOCH   = 9586
BSTAR          = .575057E-4
MEAN_MOTION_DOT = .175E-5
MEAN_MOTION_DDOT = 0

CCSDS_OMM_VERS = 2.0
CREATION_DATE  = 
ORIGINATOR     = 

OBJECT_NAME    = COSMOS 2219
OBJECT_ID      = 1992-076A
CENTER_NAME    = EARTH
REF_FRAME      = TEME
TIME_SYSTEM    = UTC
MEAN_ELEMENT_THEORY = SGP/SGP4

EPOCH          = 2026-03-17T03:51:24.767712
MEAN_MOTION    = 14.14093639
ECCENTRICITY   = .00185446
INCLINATION    = 71.0641
RA_OF_ASC_NODE = 2.4515
ARG_OF_PERICENTER = 196.6805
MEAN_ANOMALY   = 163.3710

EPHEMERIS_TYPE = 0
CLASSIFICATION_TYPE = U
NORAD_CAT_ID   = 22219
ELEMENT_SET_NO = 999
REV_AT_EPOCH   = 71943
BSTAR          = -.16717485E-4
MEAN_MOTION_DOT = -.79E-6
MEAN_MOTION_DDOT = 0

CCSDS_OMM_VERS = 2.0
CREATION_DATE  = 
ORIGINATOR     = 

OBJECT_NAME    = SL-16 R/B
OBJECT_ID      = 1992-076B
CENTER_NAME    = EARTH
REF_FRAME      = TEME
TIME_SYSTEM    = UTC
MEAN_ELEMENT_THEORY = SGP/SGP4

EPOCH          = 2026-03-16T23:46:32.812320
MEAN_MOTION    = 14.16859538
ECCENTRICITY   = .00105721
INCLINATION    = 71.0006
RA_OF_ASC_NODE = 172.9956
ARG_OF_PERICENTER = 82.8632
MEAN_ANOMALY   = 92.0301

EPHEMERIS_TYPE = 0
CLASSIFICATION_TYPE = U
NORAD_CAT_ID   = 22220
ELEMENT_SET_NO = 999
REV_AT_EPOCH   = 72286
BSTAR          = .8642696E-4
MEAN_MOTION_DOT = .126E-5
MEAN_MOTION_DDOT = 0

CCSDS_OMM_VERS = 2.0
CREATION_DATE  = 
ORIGINATOR     = 

OBJECT_NAME    = COSMOS 2221
OBJECT_ID      = 1992-080A
CENTER_NAME    = EARTH
REF_FRAME      = TEME
TIME_SYSTEM    = UTC
MEAN_ELEMENT_THEORY = SGP/SGP4

EPOCH          = 2026-03-17T06:16:21.228384
MEAN_MOTION    = 14.96231037
ECCENTRICITY   = .00146752
INCLINATION    = 82.5002
RA_OF_ASC_NODE = 271.8263
ARG_OF_PERICENTER = 161.9922
MEAN_ANOMALY   = 198.1823

EPHEMERIS_TYPE = 0
CLASSIFICATION_TYPE = U
NORAD_CAT_ID   = 22236
ELEMENT_SET_NO = 999
REV_AT_EPOCH   = 78192
BSTAR          = .15592674E-3
MEAN_MOTION_DOT = .1788E-4
MEAN_MOTION_DDOT = 0

CCSDS_OMM_VERS = 2.0
CREATION_DATE  = 
ORIGINATOR     = 

OBJECT_NAME    = SL-16 R/B
OBJECT_ID      = 1992-093B
CENTER_NAME    = EARTH
REF_FRAME      = TEME
TIME_SYSTEM    = UTC
MEAN_ELEMENT_THEORY = SGP/SGP4

EPOCH          = 2026-03-17T03:50:12.885504
MEAN_MOTION    = 14.15447398
ECCENTRICITY   = .00062764
INCLINATION    = 71.0240
RA_OF_ASC_NODE = 348.5856
ARG_OF_PERICENTER = 286.1112
MEAN_ANOMALY   = 73.9320

EPHEMERIS_TYPE = 0
CLASSIFICATION_TYPE = U
NORAD_CAT_ID   = 22285
ELEMENT_SET_NO = 999
REV_AT_EPOCH   = 71421
BSTAR          = .74036577E-4
MEAN_MOTION_DOT = .97E-6
MEAN_MOTION_DDOT = 0

CCSDS_OMM_VERS = 2.0
CREATION_DATE  = 
ORIGINATOR     = 

OBJECT_NAME    = COSMOS 2228
OBJECT_ID      = 1992-094A
CENTER_NAME    = EARTH
REF_FRAME      = TEME
TIME_SYSTEM    = UTC
MEAN_ELEMENT_THEORY = SGP/SGP4

EPOCH          = 2026-03-17T06:32:39.170112
MEAN_MOTION    = 14.97229583
ECCENTRICITY   = .00165616
INCLINATION    = 82.5163
RA_OF_ASC_NODE = 230.0491
ARG_OF_PERICENTER = 276.9740
MEAN_ANOMALY   = 82.9598

EPHEMERIS_TYPE = 0
CLASSIFICATION_TYPE = U
NORAD_CAT_ID   = 22286
ELEMENT_SET_NO = 999
REV_AT_EPOCH   = 77719
BSTAR          = .15869338E-3
MEAN_MOTION_DOT = .1867E-4
MEAN_MOTION_DDOT = 0

CCSDS_OMM_VERS = 2.0
CREATION_DATE  = 
ORIGINATOR     = 

OBJECT_NAME    = SL-16 R/B
OBJECT_ID      = 1993-016B
CENTER_NAME    = EARTH
REF_FRAME      = TEME
TIME_SYSTEM    = UTC
MEAN_ELEMENT_THEORY = SGP/SGP4

EPOCH          = 2026-03-17T01:25:54.730272
MEAN_MOTION    = 14.15308530
ECCENTRICITY   = .0012243
INCLINATION    = 71.0083
RA_OF_ASC_NODE = 199.7026
ARG_OF_PERICENTER = 304.5307
MEAN_ANOMALY   = 55.4660

EPHEMERIS_TYPE = 0
CLASSIFICATION_TYPE = U
NORAD_CAT_ID   = 22566
ELEMENT_SET_NO = 999
REV_AT_EPOCH   = 70321
BSTAR          = -.91206835E-4
MEAN_MOTION_DOT = -.225E-5
MEAN_MOTION_DDOT = 0

